ORBCOMM FM115           
1 41186U 15081H   24346.89333741  .00001452  00000+0  32272-3 0  9992
2 41186  46.9964 209.8979 0001123 251.5133 108.5632 14.61789018480362
ORBCOMM FM108           
1 41187U 15081J   24347.14574554  .00002239  00000+0  52367-3 0  9992
2 41187  47.0041 269.9150 0002138 164.4043 195.6908 14.57586284479588
ORBCOMM FM117           
1 41188U 15081K   24347.11245938  .00002188  00000+0  51266-3 0  9991
2 41188  47.0004 268.9022 0002536 180.6577 179.4305 14.57587195479593
ORBCOMM FM116           
1 41189U 15081L   24346.75937976  .00002017  00000+0  47562-3 0  9996
2 41189  47.0024   0.4083 0003011 274.6627  85.3914 14.57560769478308
